{
  "links" : {
    "next" : "https://api.nasa.gov/neo/rest/v1/feed?start_date=2002-11-23&end_date=2002-11-23&detailed=true&api_key=t0TVs3DtDT2H8Oy2Zy8m2eVrNsAVKAexjcZXUckd",
    "prev" : "https://api.nasa.gov/neo/rest/v1/feed?start_date=2002-11-21&end_date=2002-11-21&detailed=true&api_key=t0TVs3DtDT2H8Oy2Zy8m2eVrNsAVKAexjcZXUckd",
    "self" : "https://api.nasa.gov/neo/rest/v1/feed?start_date=2002-11-22&end_date=2002-11-22&detailed=true&api_key=t0TVs3DtDT2H8Oy2Zy8m2eVrNsAVKAexjcZXUckd"
  },
  "element_count" : 5,
  "near_earth_objects" : {
    "2002-11-22" : [ {
      "links" : {
        "self" : "https://api.nasa.gov/neo/rest/v1/neo/2154302?api_key=t0TVs3DtDT2H8Oy2Zy8m2eVrNsAVKAexjcZXUckd"
      },
      "neo_reference_id" : "2154302",
      "name" : "154302 (2002 UQ3)",
      "nasa_jpl_url" : "http://ssd.jpl.nasa.gov/sbdb.cgi?sstr=2154302",
      "absolute_magnitude_h" : 17.6,
      "estimated_diameter" : {
        "kilometers" : {
          "estimated_diameter_min" : 0.8027031673,
          "estimated_diameter_max" : 1.7948988478
        },
        "meters" : {
          "estimated_diameter_min" : 802.7031672829,
          "estimated_diameter_max" : 1794.8988477988
        },
        "miles" : {
          "estimated_diameter_min" : 0.4987764698,
          "estimated_diameter_max" : 1.115298092
        },
        "feet" : {
          "estimated_diameter_min" : 2633.5406593483,
          "estimated_diameter_max" : 5888.7759358124
        }
      },
      "is_potentially_hazardous_asteroid" : true,
      "close_approach_data" : [ {
        "close_approach_date" : "2002-11-22",
        "epoch_date_close_approach" : 1037952000000,
        "relative_velocity" : {
          "kilometers_per_second" : "19.3221755087",
          "kilometers_per_hour" : "69559.8318313279",
          "miles_per_hour" : "43221.774395416"
        },
        "miss_distance" : {
          "astronomical" : "0.2020009692",
          "lunar" : "78.57837677",
          "kilometers" : "30218916",
          "miles" : "18777164"
        },
        "orbiting_body" : "Earth"
      } ],
      "orbital_data" : {
        "orbit_id" : "50",
        "orbit_determination_date" : "2017-06-28 06:18:36",
        "orbit_uncertainty" : "0",
        "minimum_orbit_intersection" : ".0399452",
        "jupiter_tisserand_invariant" : "3.860",
        "epoch_osculation" : "2458000.5",
        "eccentricity" : ".5616728985717119",
        "semi_major_axis" : "1.719436957460899",
        "inclination" : "28.81905420819335",
        "ascending_node_longitude" : "222.8239611425891",
        "orbital_period" : "823.5269435528639",
        "perihelion_distance" : ".7536758176525105",
        "perihelion_argument" : "280.8992125856894",
        "aphelion_distance" : "2.685198097269287",
        "perihelion_time" : "2457602.459696236429",
        "mean_anomaly" : "174.0009971461089",
        "mean_motion" : ".4371441673139269",
        "equinox" : "J2000"
      }
    }, {
      "links" : {
        "self" : "https://api.nasa.gov/neo/rest/v1/neo/3408650?api_key=t0TVs3DtDT2H8Oy2Zy8m2eVrNsAVKAexjcZXUckd"
      },
      "neo_reference_id" : "3408650",
      "name" : "(2008 GL20)",
      "nasa_jpl_url" : "http://ssd.jpl.nasa.gov/sbdb.cgi?sstr=3408650",
      "absolute_magnitude_h" : 26.6,
      "estimated_diameter" : {
        "kilometers" : {
          "estimated_diameter_min" : 0.0127219879,
          "estimated_diameter_max" : 0.0284472297
        },
        "meters" : {
          "estimated_diameter_min" : 12.7219878539,
          "estimated_diameter_max" : 28.4472296503
        },
        "miles" : {
          "estimated_diameter_min" : 0.0079050743,
          "estimated_diameter_max" : 0.0176762835
        },
        "feet" : {
          "estimated_diameter_min" : 41.7388066307,
          "estimated_diameter_max" : 93.330808926
        }
      },
      "is_potentially_hazardous_asteroid" : false,
      "close_approach_data" : [ {
        "close_approach_date" : "2002-11-22",
        "epoch_date_close_approach" : 1037952000000,
        "relative_velocity" : {
          "kilometers_per_second" : "9.0025617982",
          "kilometers_per_hour" : "32409.2224735964",
          "miles_per_hour" : "20137.8304864411"
        },
        "miss_distance" : {
          "astronomical" : "0.2797334414",
          "lunar" : "108.8163146973",
          "kilometers" : "41847528",
          "miles" : "26002848"
        },
        "orbiting_body" : "Earth"
      } ],
      "orbital_data" : {
        "orbit_id" : "11",
        "orbit_determination_date" : "2017-04-06 09:20:30",
        "orbit_uncertainty" : "6",
        "minimum_orbit_intersection" : ".00780003",
        "jupiter_tisserand_invariant" : "6.627",
        "epoch_osculation" : "2458000.5",
        "eccentricity" : ".2022506539745438",
        "semi_major_axis" : ".8938650191052668",
        "inclination" : "6.887124889254247",
        "ascending_node_longitude" : "198.819523255077",
        "orbital_period" : "308.6784703795121",
        "perihelion_distance" : ".7130802344262586",
        "perihelion_argument" : "220.7872178395077",
        "aphelion_distance" : "1.074649803784275",
        "perihelion_time" : "2457854.421171601484",
        "mean_anomaly" : "170.3662006579523",
        "mean_motion" : "1.166262096470121",
        "equinox" : "J2000"
      }
    }, {
      "links" : {
        "self" : "https://api.nasa.gov/neo/rest/v1/neo/3467314?api_key=t0TVs3DtDT2H8Oy2Zy8m2eVrNsAVKAexjcZXUckd"
      },
      "neo_reference_id" : "3467314",
      "name" : "(2009 SC15)",
      "nasa_jpl_url" : "http://ssd.jpl.nasa.gov/sbdb.cgi?sstr=3467314",
      "absolute_magnitude_h" : 21.4,
      "estimated_diameter" : {
        "kilometers" : {
          "estimated_diameter_min" : 0.1394938229,
          "estimated_diameter_max" : 0.3119176705
        },
        "meters" : {
          "estimated_diameter_min" : 139.4938229344,
          "estimated_diameter_max" : 311.9176705226
        },
        "miles" : {
          "estimated_diameter_min" : 0.0866774163,
          "estimated_diameter_max" : 0.1938165949
        },
        "feet" : {
          "estimated_diameter_min" : 457.6569140361,
          "estimated_diameter_max" : 1023.3519701574
        }
      },
      "is_potentially_hazardous_asteroid" : false,
      "close_approach_data" : [ {
        "close_approach_date" : "2002-11-22",
        "epoch_date_close_approach" : 1037952000000,
        "relative_velocity" : {
          "kilometers_per_second" : "4.3642681335",
          "kilometers_per_hour" : "15711.3652807438",
          "miles_per_hour" : "9762.4313879155"
        },
        "miss_distance" : {
          "astronomical" : "0.3038738327",
          "lunar" : "118.2069244385",
          "kilometers" : "45458880",
          "miles" : "28246838"
        },
        "orbiting_body" : "Earth"
      } ],
      "orbital_data" : {
        "orbit_id" : "57",
        "orbit_determination_date" : "2016-08-09 06:17:42",
        "orbit_uncertainty" : "0",
        "minimum_orbit_intersection" : ".054794",
        "jupiter_tisserand_invariant" : "5.075",
        "epoch_osculation" : "2457600.5",
        "eccentricity" : ".1793161899904349",
        "semi_major_axis" : "1.265671043317151",
        "inclination" : "6.844175504841998",
        "ascending_node_longitude" : "178.6563256392723",
        "orbital_period" : "520.0914247115719",
        "perihelion_distance" : "1.0387157340483",
        "perihelion_argument" : "333.827673216959",
        "aphelion_distance" : "1.492626352586001",
        "perihelion_time" : "2457388.365638135248",
        "mean_anomaly" : "146.8364342166618",
        "mean_motion" : ".6921859944136665",
        "equinox" : "J2000"
      }
    } ]
  }
}